{
  "type": "FeatureCollection",
  "features": [
    {
      "type": "Feature",
      "properties": {
        "norad_id": 22490,
        "name": "SCD 1",
        "group": "resource",
        "lat": -21.809955230619753,
        "lon": 167.4458858828037,
        "alt_km": 727.4274810039005,
        "timestamp": "2025-12-11T05:00:25.967372+00:00",
        "meta_object_name": "SCD 1",
        "meta_object_id": "1993-009B",
        "meta_epoch": "2025-12-10T13:43:36.179328",
        "meta_mean_motion": 14.45996759,
        "meta_eccentricity": 0.0041747,
        "meta_inclination": 24.9703,
        "meta_ra_of_asc_node": 292.0692,
        "meta_arg_of_pericenter": 301.9893,
        "meta_mean_anomaly": 219.0671,
        "meta_ephemeris_type": 0,
        "meta_classification_type": "U",
        "meta_norad_cat_id": 22490,
        "meta_element_set_no": 999,
        "meta_rev_at_epoch": 73378,
        "meta_bstar": 0.00015981,
        "meta_mean_motion_dot": 7.7e-06,
        "meta_mean_motion_ddot": 0,
        "tle_line1": "1 22490U 93009B   25344.57194652  .00000770  00000+0  15981-3 0  9995",
        "tle_line2": "2 22490  24.9703 292.0692 0041747 301.9893 219.0671 14.45996759733783"
      },
      "geometry": {
        "type": "Point",
        "coordinates": [
          167.4458858828037,
          -21.809955230619753
        ]
      }
    },
    {
      "type": "Feature",
      "properties": {
        "norad_id": 25397,
        "name": "TECHSAT 1B (GO-32)",
        "group": "resource",
        "lat": -61.098345496965536,
        "lon": 131.71816953876706,
        "alt_km": 819.2384084542036,
        "timestamp": "2025-12-11T05:00:25.967400+00:00",
        "meta_object_name": "TECHSAT 1B (GO-32)",
        "meta_object_id": "1998-043D",
        "meta_epoch": "2025-12-10T09:19:40.960992",
        "meta_mean_motion": 14.24375977,
        "meta_eccentricity": 0.00021301,
        "meta_inclination": 98.9918,
        "meta_ra_of_asc_node": 327.5465,
        "meta_arg_of_pericenter": 61.168,
        "meta_mean_anomaly": 298.9711,
        "meta_ephemeris_type": 0,
        "meta_classification_type": "U",
        "meta_norad_cat_id": 25397,
        "meta_element_set_no": 999,
        "meta_rev_at_epoch": 42445,
        "meta_bstar": 9.4254531e-05,
        "meta_mean_motion_dot": 1.71e-06,
        "meta_mean_motion_ddot": 0,
        "tle_line1": "1 25397U 98043D   25344.38866853  .00000171  00000+0  94255-4 0  9992",
        "tle_line2": "2 25397  98.9918 327.5465 0002130  61.1680 298.9711 14.24375977424457"
      },
      "geometry": {
        "type": "Point",
        "coordinates": [
          131.71816953876706,
          -61.098345496965536
        ]
      }
    },
    {
      "type": "Feature",
      "properties": {
        "norad_id": 25504,
        "name": "SCD 2",
        "group": "resource",
        "lat": -24.761543932771538,
        "lon": 69.40339337650792,
        "alt_km": 730.136012606582,
        "timestamp": "2025-12-11T05:00:25.967415+00:00",
        "meta_object_name": "SCD 2",
        "meta_object_id": "1998-060A",
        "meta_epoch": "2025-12-10T19:33:00.489600",
        "meta_mean_motion": 14.45421747,
        "meta_eccentricity": 0.00166027,
        "meta_inclination": 24.9931,
        "meta_ra_of_asc_node": 153.7673,
        "meta_arg_of_pericenter": 293.0623,
        "meta_mean_anomaly": 89.7453,
        "meta_ephemeris_type": 0,
        "meta_classification_type": "U",
        "meta_norad_cat_id": 25504,
        "meta_element_set_no": 999,
        "meta_rev_at_epoch": 43304,
        "meta_bstar": 0.00011799575,
        "meta_mean_motion_dot": 6.05e-06,
        "meta_mean_motion_ddot": 0,
        "tle_line1": "1 25504U 98060A   25344.81458900  .00000605  00000+0  11800-3 0  9995",
        "tle_line2": "2 25504  24.9931 153.7673 0016602 293.0623  89.7453 14.45421747433047"
      },
      "geometry": {
        "type": "Point",
        "coordinates": [
          69.40339337650792,
          -24.761543932771538
        ]
      }
    },
    {
      "type": "Feature",
      "properties": {
        "norad_id": 25757,
        "name": "DLR-TUBSAT",
        "group": "resource",
        "lat": -52.36871614269683,
        "lon": -18.92856433624378,
        "alt_km": 728.1168783194616,
        "timestamp": "2025-12-11T05:00:25.967428+00:00",
        "meta_object_name": "DLR-TUBSAT",
        "meta_object_id": "1999-029B",
        "meta_epoch": "2025-12-10T16:01:29.165088",
        "meta_mean_motion": 14.52356404,
        "meta_eccentricity": 0.0013766,
        "meta_inclination": 98.6562,
        "meta_ra_of_asc_node": 329.1176,
        "meta_arg_of_pericenter": 199.2259,
        "meta_mean_anomaly": 160.8418,
        "meta_ephemeris_type": 0,
        "meta_classification_type": "U",
        "meta_norad_cat_id": 25757,
        "meta_element_set_no": 999,
        "meta_rev_at_epoch": 40588,
        "meta_bstar": 7.4223707e-05,
        "meta_mean_motion_dot": 2.54e-06,
        "meta_mean_motion_ddot": 0,
        "tle_line1": "1 25757U 99029B   25344.66769867  .00000254  00000+0  74224-4 0  9991",
        "tle_line2": "2 25757  98.6562 329.1176 0013766 199.2259 160.8418 14.52356404405880"
      },
      "geometry": {
        "type": "Point",
        "coordinates": [
          -18.92856433624378,
          -52.36871614269683
        ]
      }
    },
    {
      "type": "Feature",
      "properties": {
        "norad_id": 25994,
        "name": "TERRA",
        "group": "resource",
        "lat": -36.75912436615355,
        "lon": 42.96039108446033,
        "alt_km": 698.4095983277693,
        "timestamp": "2025-12-11T05:00:25.967440+00:00",
        "meta_object_name": "TERRA",
        "meta_object_id": "1999-068A",
        "meta_epoch": "2025-12-10T22:50:12.297408",
        "meta_mean_motion": 14.60898443,
        "meta_eccentricity": 0.00036027,
        "meta_inclination": 97.9751,
        "meta_ra_of_asc_node": 36.7017,
        "meta_arg_of_pericenter": 98.0426,
        "meta_mean_anomaly": 313.5542,
        "meta_ephemeris_type": 0,
        "meta_classification_type": "U",
        "meta_norad_cat_id": 25994,
        "meta_element_set_no": 999,
        "meta_rev_at_epoch": 38212,
        "meta_bstar": 0.00015110869,
        "meta_mean_motion_dot": 6.95e-06,
        "meta_mean_motion_ddot": 0,
        "tle_line1": "1 25994U 99068A   25344.95153122  .00000695  00000+0  15111-3 0  9998",
        "tle_line2": "2 25994  97.9751  36.7017 0003602  98.0426 313.5542 14.60898443382129"
      },
      "geometry": {
        "type": "Point",
        "coordinates": [
          42.96039108446033,
          -36.75912436615355
        ]
      }
    },
    {
      "type": "Feature",
      "properties": {
        "norad_id": 27004,
        "name": "MAROC-TUBSAT",
        "group": "resource",
        "lat": 80.19220822422365,
        "lon": 60.915973073563805,
        "alt_km": 1005.2125605393785,
        "timestamp": "2025-12-11T05:00:25.967452+00:00",
        "meta_object_name": "MAROC-TUBSAT",
        "meta_object_id": "2001-056D",
        "meta_epoch": "2025-12-10T11:07:51.424032",
        "meta_mean_motion": 13.70252712,
        "meta_eccentricity": 0.00190921,
        "meta_inclination": 99.7912,
        "meta_ra_of_asc_node": 152.8689,
        "meta_arg_of_pericenter": 266.2021,
        "meta_mean_anomaly": 111.9402,
        "meta_ephemeris_type": 0,
        "meta_classification_type": "U",
        "meta_norad_cat_id": 27004,
        "meta_element_set_no": 999,
        "meta_rev_at_epoch": 20034,
        "meta_bstar": 4.2568773e-05,
        "meta_mean_motion_dot": -9e-08,
        "meta_mean_motion_ddot": 0,
        "tle_line1": "1 27004U 01056D   25344.46378963 -.00000009  00000+0  42569-4 0  9998",
        "tle_line2": "2 27004  99.7912 152.8689 0019092 266.2021 111.9402 13.70252712200348"
      },
      "geometry": {
        "type": "Point",
        "coordinates": [
          60.915973073563805,
          80.19220822422365
        ]
      }
    },
    {
      "type": "Feature",
      "properties": {
        "norad_id": 27424,
        "name": "AQUA",
        "group": "resource",
        "lat": -12.964210897716793,
        "lon": 124.11255220174422,
        "alt_km": 691.7244325938573,
        "timestamp": "2025-12-11T05:00:25.967462+00:00",
        "meta_object_name": "AQUA",
        "meta_object_id": "2002-022A",
        "meta_epoch": "2025-12-10T21:36:43.522272",
        "meta_mean_motion": 14.61802151,
        "meta_eccentricity": 0.00010207,
        "meta_inclination": 98.4036,
        "meta_ra_of_asc_node": 305.7497,
        "meta_arg_of_pericenter": 114.8286,
        "meta_mean_anomaly": 257.5742,
        "meta_ephemeris_type": 0,
        "meta_classification_type": "U",
        "meta_norad_cat_id": 27424,
        "meta_element_set_no": 999,
        "meta_rev_at_epoch": 25576,
        "meta_bstar": 0.0003622738,
        "meta_mean_motion_dot": 1.759e-05,
        "meta_mean_motion_ddot": 0,
        "tle_line1": "1 27424U 02022A   25344.90050373  .00001759  00000+0  36227-3 0  9994",
        "tle_line2": "2 27424  98.4036 305.7497 0001020 114.8286 257.5742 14.61802151255765"
      },
      "geometry": {
        "type": "Point",
        "coordinates": [
          124.11255220174422,
          -12.964210897716793
        ]
      }
    }
  ]
}